NORAD_CAT_ID,OBJECT_NAME,OBJECT_TYPE,EPOCH,MEAN_MOTION,ECCENTRICITY,INCLINATION,RA_OF_ASC_NODE,ARG_OF_PERICENTER,MEAN_ANOMALY,BSTAR,MEAN_MOTION_DOT,MEAN_MOTION_DDOT,TLE_LINE0,TLE_LINE1,TLE_LINE2,SEMIMAJOR_AXIS,PERIOD,APOGEE,PERIGEE,DECAYED
49727.0,STARLINK-3242,PAYLOAD,2021-12-08 12:00:00,15.42450453,0.0005491,53.2173,291.0734,311.2924,251.6536,-0.0204,-0.00820683,0.0,0 STARLINK-3242,1 49727U 21115D   21342.50001157 -.00820683  00000-0 -20400-1 0  9996,2 49727  53.2173 291.0734 0005491 311.2924 251.6536 15.42450453  2125,6817.017,93.358,442.625,435.139,0.0
49727.0,STARLINK-3242,PAYLOAD,2021-12-08 22:00:00,15.41716058,0.0004697,53.2177,289.1047,315.6227,41.7421,-0.020667,-0.00811671,0.0,0 STARLINK-3242,1 49727U 21115D   21342.91667824 -.00811671  00000-0 -20667-1 0  9992,2 49727  53.2177 289.1047 0004697 315.6227  41.7421 15.41716058  1377,6819.181,93.402,444.249,437.843,0.0
49727.0,STARLINK-3242,PAYLOAD,2021-12-09 12:00:00,15.40529552,0.0002516,53.2175,286.3537,267.728,87.99700000000001,-0.0026635,-0.00108649,0.0,0 STARLINK-3242,1 49727U 21115D   21343.50001157 -.00108649  00000-0 -26635-2 0  9995,2 49727  53.2175 286.3537 0002516 267.7280  87.9970 15.40529552  2273,6822.682,93.474,446.264,442.831,0.0
49727.0,STARLINK-3242,PAYLOAD,2021-12-09 22:00:00,15.40494738,0.0002195,53.217,284.3921,277.0738,230.7234,-0.00015136,-6.63e-05,0.0,0 STARLINK-3242,1 49727U 21115D   21343.91667824 -.00006630  00000-0 -15136-3 0  9991,2 49727  53.2170 284.3921 0002195 277.0738 230.7234 15.40494738  1534,6822.785,93.476,446.148,443.153,0.0
49727.0,STARLINK-3242,PAYLOAD,2021-12-10 14:00:01,15.40503174,0.0002221,53.2162,281.2509,281.4762,325.5823,0.00012841,4.888e-05,0.0,0 STARLINK-3242,1 49727U 21115D   21344.58334491  .00004888  00000-0  12841-3 0  9997,2 49727  53.2162 281.2509 0002221 281.4762 325.5823 15.40503174  1632,6822.76,93.476,446.141,443.11,0.0
49727.0,STARLINK-3242,PAYLOAD,2021-12-10 22:00:00,15.40538198,0.0002057,53.2161,279.6805,281.8402,14.8551,-0.0020092,-0.00082357,0.0,0 STARLINK-3242,1 49727U 21115D   21344.91667824 -.00082357  00000-0 -20092-2 0  9998,2 49727  53.2161 279.6805 0002057 281.8402  14.8551 15.40538198  2498,6822.656999999997,93.474,445.925,443.11800000000005,0.0
49727.0,STARLINK-3242,PAYLOAD,2021-12-11 12:00:00,15.40461563,0.0001896,53.2156,276.9321,289.84,3.7,-0.00066192,-0.00027527,0.0,0 STARLINK-3242,1 49727U 21115D   21345.50001157 -.00027527  00000-0 -66192-3 0  9995,2 49727  53.2156 276.9321 0001896 289.8400   3.7000 15.40461563  2588,6822.8830000000025,93.478,446.042,443.454,0.0
49727.0,STARLINK-3242,PAYLOAD,2021-12-11 14:00:01,15.40442157,0.0001855,53.2157,276.5389,287.2228,108.7182,0.00028412,0.0001129,0.0,0 STARLINK-3242,1 49727U 21115D   21345.58334491  .00011290  00000-0  28412-3 0  9994,2 49727  53.2157 276.5389 0001855 287.2228 108.7182 15.40442157  1791,6822.94,93.48,446.071,443.54,0.0
49727.0,STARLINK-3242,PAYLOAD,2021-12-11 22:00:00,15.40468764,0.0001753,53.2159,274.9686,289.7133,155.7974,-0.0010376,-0.00042845,0.0,0 STARLINK-3242,1 49727U 21115D   21345.91667824 -.00042845  00000-0 -10376-2 0  9991,2 49727  53.2159 274.9686 0001753 289.7133 155.7974 15.40468764  1843,6822.861999999999,93.478,445.923,443.531,0.0
49727.0,STARLINK-3242,PAYLOAD,2021-12-12 04:00:00,15.40428825,0.0001792,53.2159,273.7921,298.1374,94.5637,0.00072323,0.00029421,0.0,0 STARLINK-3242,1 49727U 21115D   21346.16667824  .00029421  00000-0  72323-3 0  9993,2 49727  53.2159 273.7921 0001792 298.1374  94.5637 15.40428825  2689,6822.98,93.48,446.067,443.622,0.0
49727.0,STARLINK-3242,PAYLOAD,2021-12-12 14:00:01,15.40450528,0.0001778,53.216,271.8271,294.5884,250.0776,0.00037548,0.00015063,0.0,0 STARLINK-3242,1 49727U 21115D   21346.58334491  .00015063  00000-0  37548-3 0  9997,2 49727  53.2160 271.8271 0001778 294.5884 250.0776 15.40450528  1944,6822.916,93.479,445.994,443.568,0.0
49727.0,STARLINK-3242,PAYLOAD,2021-12-12 22:00:01,15.40334541,0.0001769,53.217,270.2548,298.5016,295.8422,0.0027393,0.00113455,0.0,0 STARLINK-3242,1 49727U 21115D   21346.91668981  .00113455  00000-0  27393-2 0  9998,2 49727  53.2170 270.2548 0001769 298.5016 295.8422 15.40334541  2803,6823.2580000000025,93.486,446.33,443.916,0.0
49727.0,STARLINK-3242,PAYLOAD,2021-12-13 06:00:00,15.40447159,0.0001785,53.2164,268.6877,307.717,336.1249,0.00076684,0.00031246,0.0,0 STARLINK-3242,1 49727U 21115D   21347.25001157  .00031246  00000-0  76684-3 0  9997,2 49727  53.2164 268.6877 0001785 307.7170 336.1249 15.40447159  2855,6822.926,93.479,446.009,443.573,0.0
49727.0,STARLINK-3242,PAYLOAD,2021-12-13 14:00:01,15.404330599999998,0.0001604,53.2167,267.1152,305.3647,28.0763,0.0010019,0.00040981,0.0,0 STARLINK-3242,1 49727U 21115D   21347.58334491  .00040981  00000-0  10019-2 0  9998,2 49727  53.2167 267.1152 0001604 305.3647  28.0763 15.40433060  2103,6822.967,93.48,445.927,443.73800000000006,0.0
49727.0,STARLINK-3242,PAYLOAD,2021-12-13 22:00:00,15.40497225,0.0001538,53.217,265.5451,311.8486,71.1598,-0.0013548,-0.00055778,0.0,0 STARLINK-3242,1 49727U 21115D   21347.91667824 -.00055778  00000-0 -13548-2 0  9996,2 49727  53.2170 265.5451 0001538 311.8486  71.1598 15.40497225  2951,6822.778,93.476,445.692,443.593,0.0
49727.0,STARLINK-3242,PAYLOAD,2021-12-14 12:00:00,15.404565300000002,0.0001408,53.2176,262.7949,344.3249,35.4841,-0.0089309,-0.00351243,0.0,0 STARLINK-3242,1 49727U 21115D   21348.50001157 -.00351243  00000-0 -89309-2 0  9997,2 49727  53.2176 262.7949 0001408 344.3249  35.4841 15.40456530  3041,6822.898,93.479,445.724,443.802,0.0
49727.0,STARLINK-3242,PAYLOAD,2021-12-14 14:00:01,15.40402173,0.0001329,53.2176,262.4019,355.7081,126.4893,-0.0098393,-0.0038457,0.0,0 STARLINK-3242,1 49727U 21115D   21348.58334491 -.00384570  00000-0 -98393-2 0  9997,2 49727  53.2176 262.4019 0001329 355.7081 126.4893 15.40402173  2252,6823.058000000001,93.482,445.83,444.017,0.0
49727.0,STARLINK-3242,PAYLOAD,2021-12-14 20:00:01,15.40259819,0.0001889,53.2176,261.2233,19.3231,49.9235,-0.017457,-0.00663369,0.0,0 STARLINK-3242,1 49727U 21115D   21348.83334491 -.00663369  00000-0 -17457-1 0  9992,2 49727  53.2176 261.2233 0001889  19.3231  49.9235 15.40259819  3097,6823.479,93.491,446.633,444.055,0.0
49727.0,STARLINK-3242,PAYLOAD,2021-12-14 22:00:00,15.40141217,0.0002003,53.2176,260.8314,25.2795,146.2859,-0.017462,-0.00661132,0.0,0 STARLINK-3242,1 49727U 21115D   21348.91667824 -.00661132  00000-0 -17462-1 0  9992,2 49727  53.2176 260.8314 0002003  25.2795 146.2859 15.40141217  2300,6823.829000000002,93.498,447.061,444.327,0.0
49727.0,STARLINK-3242,PAYLOAD,2021-12-15 04:00:00,15.39789732,0.000161,53.2176,259.6553,43.797,74.4002,-0.017586,-0.00658266,0.0,0 STARLINK-3242,1 49727U 21115D   21349.16667824 -.00658266  00000-0 -17586-1 0  9991,2 49727  53.2176 259.6553 0001610  43.7970  74.4002 15.39789732  3147,6824.868,93.519,447.831,445.634,0.0
49727.0,STARLINK-3242,PAYLOAD,2021-12-15 14:22:36,15.39184556,0.000161,53.2174,257.6186,36.3578,319.3291,-0.017932,-0.00657948,0.0,0 STARLINK-3242,1 49727U 21115D   21349.59902778 -.00657948  00000-0 -17932-1 0  9999,2 49727  53.2174 257.6186 0001610  36.3578 319.3291 15.39184556  2410,6826.656,93.556,449.62,447.422,0.0
49727.0,STARLINK-3242,PAYLOAD,2021-12-15 22:00:01,15.38742189,0.0001793,53.2177,256.126,35.6089,280.9923,-0.018296,-0.00661365,0.0,0 STARLINK-3242,1 49727U 21115D   21349.91668981 -.00661365  00000-0 -18296-1 0  9992,2 49727  53.2177 256.1260 0001793  35.6089 280.9923 15.38742189  2462,6827.965,93.583,451.054,448.605,0.0
49727.0,STARLINK-3242,PAYLOAD,2021-12-16 06:00:00,15.38275231,0.0001471,53.2173,254.5606,43.0681,320.7085,-0.018533,-0.0065981,0.0,0 STARLINK-3242,1 49727U 21115D   21350.25001157 -.00659810  00000-0 -18533-1 0  9993,2 49727  53.2173 254.5606 0001471  43.0681 320.7085 15.38275231  3314,6829.346,93.611,452.216,450.207,0.0
49727.0,STARLINK-3242,PAYLOAD,2021-12-16 14:00:01,15.37807121,0.0001648,53.2174,252.9936,35.2276,15.2307,-0.01878,-0.00658552,0.0,0 STARLINK-3242,1 49727U 21115D   21350.58334491 -.00658552  00000-0 -18780-1 0  9995,2 49727  53.2174 252.9936 0001648  35.2276  15.2307 15.37807121  2569,6830.732,93.64,453.723,451.472,0.0
49727.0,STARLINK-3242,PAYLOAD,2021-12-16 21:34:54,15.37784794,6.19e-05,53.2161,251.5175,168.7818,191.3201,-0.0028479,-0.00106175,0.0,0 STARLINK-3242,1 49727U 21115D   21350.89924592 -.00106175  00000-0 -28479-2 0  9992,2 49727  53.2161 251.5175 0000619 168.7818 191.3201 15.37784794  2307,6830.7980000000025,93.641,453.086,452.241,0.0
49727.0,STARLINK-3242,PAYLOAD,2021-12-17 06:00:00,15.36875245,0.0001659,53.2171,249.8684,42.7391,99.3946,-0.019401,-0.00659883,0.0,0 STARLINK-3242,1 49727U 21115D   21351.25001157 -.00659883  00000-0 -19401-1 0  9999,2 49727  53.2171 249.8684 0001659  42.7391  99.3946 15.36875245  3467,6833.493,93.697,456.492,454.224,0.0
49727.0,STARLINK-3242,PAYLOAD,2021-12-17 20:59:45,15.3641536,0.00013,53.2159,246.9468,37.8091,322.3004,-0.0091065,-0.0031525,0.0,0 STARLINK-3242,1 49727U 21115D   21351.87482776 -.00315250  00000-0 -91065-2 0  9991,2 49727  53.2159 246.9468 0001300  37.8091 322.3004 15.36415360  2456,6834.857,93.725,457.61,455.833,0.0
49727.0,STARLINK-3242,PAYLOAD,2021-12-18 12:00:00,15.35124444,0.0001676999999999,53.2175,244.0156,45.6448,172.3406,-0.020458,-0.00657738,0.0,0 STARLINK-3242,1 49727U 21115D   21352.50001157 -.00657738  00000-0 -20458-1 0  9999,2 49727  53.2175 244.0156 0001677  45.6448 172.3406 15.35124444  3669,6838.688,93.803,461.7,459.406,0.0
49727.0,STARLINK-3242,PAYLOAD,2021-12-18 14:00:01,15.35007106,0.0001517,53.2173,243.6259,45.6248,273.1375,-0.020516,-0.00657146,0.0,0 STARLINK-3242,1 49727U 21115D   21352.58334491 -.00657146  00000-0 -20516-1 0  9995,2 49727  53.2173 243.6259 0001517  45.6248 273.1375 15.35007106  2879,6839.036,93.811,461.939,459.864,0.0
